     2.10           G: GLONASS NAV DATA                     RINEX VERSION / TYPE
teqc  2015Jun23                         20220725 01:25:43UTCPGM / RUN BY / DATE
Linux 2.4.21-27.ELsmp|Opteron|gcc -static|Linux x86_64|=+   COMMENT
  2022     7    14   -9.313225746155D-10                    CORR TO SYSTEM TIME
                                                            END OF HEADER
 6 22  7 15 16 45  0.0-5.927216261625D-05-1.818989403546D-12 5.940000000000D+04
   -4.751604492188D+03-5.246057510376D-01-2.793967723846D-09 0.000000000000D+00
    2.250091845703D+04 1.420859336853D+00 9.313225746155D-10-4.000000000000D+00
    1.100600097656D+04-3.130417823792D+00-3.725290298462D-09 0.000000000000D+00
10 22  7 15 16 45  0.0-8.419528603554D-05-0.000000000000D+00 5.940000000000D+04
    1.514271386719D+04 2.904911041260D-01-2.793967723846D-09 0.000000000000D+00
    2.036169580078D+04 1.696147918701D-01-9.313225746155D-10-7.000000000000D+00
   -2.215908691406D+03 3.552871704102D+00-0.000000000000D+00 0.000000000000D+00
 7 22  7 15 16 45  0.0 3.791134804487D-05 9.094947017729D-13 6.060000000000D+04
    5.827099609375D+03-1.307520866394D+00 0.000000000000D+00 0.000000000000D+00
    1.156829296875D+04 2.704854965210D+00-1.862645149231D-09 5.000000000000D+00
    2.200493115234D+04-1.081796646118D+00-1.862645149231D-09 0.000000000000D+00
 7 22  7 15 17 15  0.0 3.791134804487D-05 0.000000000000D+00 6.120000000000D+04
    3.948663574219D+03-7.776899337769D-01-9.313225746155D-10 0.000000000000D+00
    1.630690283203D+04 2.510335922241D+00-9.313225746155D-10 5.000000000000D+00
    1.923450097656D+04-1.976715087891D+00-2.793967723846D-09 0.000000000000D+00
 6 22  7 15 17 15  0.0-5.927588790655D-05-1.818989403546D-12 6.120000000000D+04
   -5.261788574219D+03-7.102775573730D-02-3.725290298462D-09 0.000000000000D+00
    2.443756054688D+04 7.001600265503D-01 2.793967723846D-09-4.000000000000D+00
    5.017997070312D+03-3.479643821716D+00-3.725290298462D-09 0.000000000000D+00
 5 22  7 15 17 15  0.0 9.628292173147D-05 0.000000000000D+00 6.120000000000D+04
   -1.302059375000D+04 8.023471832275D-01-3.725290298462D-09 0.000000000000D+00
    1.649560644531D+04-1.815964698792D+00 5.587935447693D-09 1.000000000000D+00
   -1.442962353516D+04-2.799620628357D+00-9.313225746155D-10 0.000000000000D+00
 9 22  7 15 17 15  0.0 6.593763828278D-05 2.728484105319D-12 6.120000000000D+04
    4.242155273438D+03-1.573603630066D+00-9.313225746155D-10 0.000000000000D+00
    1.783299462891D+04-1.849440574646D+00-9.313225746155D-10-2.000000000000D+00
    1.779764892578D+04 2.223432540894D+00-2.793967723846D-09 0.000000000000D+00
10 22  7 15 17 15  0.0-8.419714868069D-05-0.000000000000D+00 6.120000000000D+04
    1.518371240234D+04-2.755832672119D-01-2.793967723846D-09 0.000000000000D+00
    2.001926806641D+04-5.233068466187D-01-9.313225746155D-10-7.000000000000D+00
    4.182310058594D+03 3.509890556335D+00-9.313225746155D-10 0.000000000000D+00
19 22  7 15 17 15  0.0-1.964149996638D-04-9.094947017729D-13 6.246000000000D+04
   -2.396826806641D+04-7.813787460327D-01-9.313225746155D-10 0.000000000000D+00
    6.323770996094D+03 3.690547943115D-01 5.587935447693D-09 3.000000000000D+00
   -6.042119140625D+03 3.489268302917D+00-1.862645149231D-09 0.000000000000D+00
 6 22  7 15 17 45  0.0-5.928054451942D-05-1.818989403546D-12 6.300000000000D+04
   -5.130410644531D+03 1.786861419678D-01-3.725290298462D-09 0.000000000000D+00
    2.493989355469D+04-1.557617187500D-01 3.725290298462D-09-4.000000000000D+00
   -1.358606445312D+03-3.559393882751D+00-2.793967723846D-09 0.000000000000D+00
 5 22  7 15 17 45  0.0 9.628292173147D-05 0.000000000000D+00 6.300000000000D+04
   -1.168195312500D+04 6.472301483154D-01-1.862645149231D-09 0.000000000000D+00
    1.258065820312D+04-2.505096435547D+00 5.587935447693D-09 1.000000000000D+00
   -1.884485205078D+04-2.074293136597D+00-0.000000000000D+00 0.000000000000D+00
 7 22  7 15 17 45  0.0 3.791227936745D-05 0.000000000000D+00 6.300000000000D+04
    3.001722167969D+03-2.903261184692D-01-1.862645149231D-09 0.000000000000D+00
    2.043235595703D+04 2.028763771057D+00 9.313225746155D-10 5.000000000000D+00
    1.497983349609D+04-2.720214843750D+00-3.725290298462D-09 0.000000000000D+00
 9 22  7 15 17 45  0.0 6.594229489565D-05 2.728484105319D-12 6.300000000000D+04
    8.671552734375D+02-2.159639358521D+00-0.000000000000D+00 0.000000000000D+00
    1.442094726562D+04-1.897024154663D+00-0.000000000000D+00-2.000000000000D+00
    2.106350000000D+04 1.381725311279D+00-2.793967723846D-09 0.000000000000D+00
10 22  7 15 17 45  0.0-8.419808000326D-05-0.000000000000D+00 6.300000000000D+04
    1.406627587891D+04-9.812936782837D-01-1.862645149231D-09 0.000000000000D+00
    1.859850683594D+04-1.016257286072D+00-0.000000000000D+00-7.000000000000D+00
    1.025574804688D+04 3.194387435913D+00-1.862645149231D-09 0.000000000000D+00
19 22  7 15 17 45  0.0-1.964168623090D-04-9.094947017729D-13 6.300000000000D+04
   -2.455768847656D+04 1.237993240356D-01 0.000000000000D+00 0.000000000000D+00
    6.903318847656D+03 2.318906784058D-01 3.725290298462D-09 3.000000000000D+00
    3.909218750000D+02 3.612165451050D+00-1.862645149231D-09 0.000000000000D+00
20 22  7 15 17 45  0.0-7.464736700058D-05-9.094947017729D-13 6.345000000000D+04
   -1.327721923828D+04-2.339655876160D+00-1.862645149231D-09 0.000000000000D+00
    1.213986621094D+04 8.377532958984D-01 5.587935447693D-09 2.000000000000D+00
   -1.806540185547D+04 2.285673141479D+00-0.000000000000D+00 0.000000000000D+00
20 22  7 15 18 15  0.0-7.464922964573D-05-9.094947017729D-13 6.480000000000D+04
   -1.683683056641D+04-1.591721534729D+00-0.000000000000D+00 0.000000000000D+00
    1.376015380859D+04 9.205608367920D-01 5.587935447693D-09 2.000000000000D+00
   -1.330492919922D+04 2.969394683838D+00-9.313225746155D-10 0.000000000000D+00
 6 22  7 15 18 15  0.0-5.928426980972D-05-1.818989403546D-12 6.480000000000D+04
   -4.763508300781D+03 1.882629394531D-01-2.793967723846D-09 0.000000000000D+00
    2.386204345703D+04-1.036136627197D+00 5.587935447693D-09-4.000000000000D+00
   -7.630061523438D+03-3.363600730896D+00-1.862645149231D-09 0.000000000000D+00
 5 22  7 15 18 15  0.0 9.628385305405D-05 0.000000000000D+00 6.480000000000D+04
   -1.080676611328D+04 2.995996475220D-01-0.000000000000D+00 0.000000000000D+00
    7.609120605469D+03-2.975552558899D+00 4.656612873077D-09 1.000000000000D+00
   -2.180053564453D+04-1.188481330872D+00 9.313225746155D-10 0.000000000000D+00
 7 22  7 15 18 15  0.0 3.791321069002D-05 0.000000000000D+00 6.480000000000D+04
    2.818519531250D+03 5.634498596191D-02-1.862645149231D-09 0.000000000000D+00
    2.346911376953D+04 1.312883377075D+00 1.862645149231D-09 5.000000000000D+00
    9.567613769531D+03-3.254437446594D+00-3.725290298462D-09 0.000000000000D+00
 9 22  7 15 18 15  0.0 6.594695150852D-05 2.728484105319D-12 6.480000000000D+04
   -3.441843750000D+03-2.595191955566D+00 0.000000000000D+00 0.000000000000D+00
    1.115372949219D+04-1.695922851562D+00-0.000000000000D+00-2.000000000000D+00
    2.270734082031D+04 4.327697753906D-01-2.793967723846D-09 0.000000000000D+00
10 22  7 15 18 15  0.0-8.419994264841D-05-0.000000000000D+00 6.480000000000D+04
    1.162890722656D+04-1.723568916321D+00-1.862645149231D-09 0.000000000000D+00
    1.651376367188D+04-1.255677223206D+00-0.000000000000D+00-7.000000000000D+00
    1.553307763672D+04 2.631162643433D+00-2.793967723846D-09 0.000000000000D+00
19 22  7 15 18 15  0.0-1.964196562767D-04-9.094947017729D-13 6.480000000000D+04
   -2.356821972656D+04 9.533958435059D-01 1.862645149231D-09 0.000000000000D+00
    7.011778808594D+03-1.484127044678D-01 1.862645149231D-09 3.000000000000D+00
    6.793721679688D+03 3.455864906311D+00-1.862645149231D-09 0.000000000000D+00
21 22  7 15 18 15  0.0-3.176415339112D-04-2.728484105319D-12 6.591000000000D+04
    2.413703613281D+03-2.861625671387D+00-1.862645149231D-09 0.000000000000D+00
    1.039826562500D+04 1.376671791077D+00 3.725290298462D-09 4.000000000000D+00
   -2.317605566406D+04 3.169794082642D-01 9.313225746155D-10 0.000000000000D+00
 8 22  7 15 18 15  0.0-6.619282066822D-05 0.000000000000D+00 6.636000000000D+04
    9.238130859375D+03-1.431531906128D-01-9.313225746155D-10 0.000000000000D+00
    1.092058544922D+04 2.882338523865D+00-9.313225746155D-10 6.000000000000D+00
    2.117078125000D+04-1.430425643921D+00-2.793967723846D-09 0.000000000000D+00
20 22  7 15 18 45  0.0-7.465109229088D-05-9.094947017729D-13 6.660000000000D+04
   -1.895683789062D+04-7.598314285278D-01 0.000000000000D+00 0.000000000000D+00
    1.529407470703D+04 7.385978698730D-01 5.587935447693D-09 2.000000000000D+00
   -7.513802246094D+03 3.423343658447D+00-1.862645149231D-09 0.000000000000D+00
 6 22  7 15 18 45  0.0-5.928799510002D-05-1.818989403546D-12 6.660000000000D+04
   -4.592678710938D+03-3.405761718750D-02-1.862645149231D-09 0.000000000000D+00
    2.126492285156D+04-1.825103759766D+00 6.519258022308D-09-4.000000000000D+00
   -1.331105517578D+04-2.907632827759D+00-9.313225746155D-10 0.000000000000D+00
 7 22  7 15 18 45  0.0 3.791414201260D-05 0.000000000000D+00 6.660000000000D+04
    3.076726074219D+03 1.912927627563D-01-1.862645149231D-09 0.000000000000D+00
    2.507143798828D+04 4.522819519043D-01 4.656612873077D-09 5.000000000000D+00
    3.415019042969D+03-3.537378311157D+00-2.793967723846D-09 0.000000000000D+00
10 22  7 15 18 45  0.0-8.420087397099D-05-0.000000000000D+00 6.660000000000D+04
    7.907702148438D+03-2.389008522034D+00-9.313225746155D-10 0.000000000000D+00
    1.423672558594D+04-1.232201576233D+00-0.000000000000D+00-7.000000000000D+00
    1.960549267578D+04 1.864402770996D+00-2.793967723846D-09 0.000000000000D+00
21 22  7 15 18 45  0.0-3.176461905241D-04-2.728484105319D-12 6.660000000000D+04
   -2.406355468750D+03-2.453413009644D+00-9.313225746155D-10 0.000000000000D+00
    1.318403515625D+04 1.685116767883D+00 5.587935447693D-09 4.000000000000D+00
   -2.171808251953D+04 1.292418479919D+00 0.000000000000D+00 0.000000000000D+00
